{"type": "FeatureCollection", "features": [ {"type": "Feature", "properties": {"norad_id": 39122, "name": "EUTELSAT 117 WEST A", "group": "eutelsat", "lat": -0.045407280221408684, "lon": -135.38182510886554, "alt_km": 35777.618107665454, "timestamp": "2025-12-20T16:47:35.962493+00:00", "meta": {"OBJECT_NAME": "EUTELSAT 117 WEST A", "OBJECT_ID": "2013-012A", "EPOCH": "2025-12-20T10:15:38.712096", "MEAN_MOTION": 1.00274588, "ECCENTRICITY": 0.0002823, "INCLINATION": 0.0305, "RA_OF_ASC_NODE": 302.0312, "ARG_OF_PERICENTER": 332.7573, "MEAN_ANOMALY": 211.6045, "EPHEMERIS_TYPE": 0, "CLASSIFICATION_TYPE": "U", "NORAD_CAT_ID": 39122, "ELEMENT_SET_NO": 999, "REV_AT_EPOCH": 4664, "BSTAR": 0, "MEAN_MOTION_DOT": 1e-07, "MEAN_MOTION_DDOT": 0}, "tle": {"line1": "1 39122U 13012A   25354.42753139  .00000010  00000+0  00000+0 0  9996", "line2": "2 39122   0.0305 302.0312 0002823 332.7573 211.6045  1.00274588 46647"}}, "geometry": {"type": "Point", "coordinates": [-135.38182510886554, -0.045407280221408684]}}, {"type": "Feature", "properties": {"norad_id": 39163, "name": "EUTELSAT 7B", "group": "eutelsat", "lat": -0.016259017450637996, "lon": -11.56046962844624, "alt_km": 35769.802888511935, "timestamp": "2025-12-20T16:47:35.962506+00:00", "meta": {"OBJECT_NAME": "EUTELSAT 7B", "OBJECT_ID": "2013-022A", "EPOCH": "2025-12-20T06:24:55.272096", "MEAN_MOTION": 1.00270737, "ECCENTRICITY": 0.0004381, "INCLINATION": 0.0652, "RA_OF_ASC_NODE": 359.0101, "ARG_OF_PERICENTER": 323.4978, "MEAN_ANOMALY": 229.8249, "EPHEMERIS_TYPE": 0, "CLASSIFICATION_TYPE": "U", "NORAD_CAT_ID": 39163, "ELEMENT_SET_NO": 999, "REV_AT_EPOCH": 4615, "BSTAR": 0, "MEAN_MOTION_DOT": 7.2e-07, "MEAN_MOTION_DDOT": 0}, "tle": {"line1": "1 39163U 13022A   25354.26730639  .00000072  00000+0  00000+0 0  9992", "line2": "2 39163   0.0652 359.0101 0004381 323.4978 229.8249  1.00270737 46157"}}, "geometry": {"type": "Point", "coordinates": [-11.56046962844624, -0.016259017450637996]}}, {"type": "Feature", "properties": {"norad_id": 39612, "name": "EXPRESS-AT1", "group": "eutelsat", "lat": 0.029452448752379838, "lon": 37.39711260589075, "alt_km": 35785.09381135528, "timestamp": "2025-12-20T16:47:35.962518+00:00", "meta": {"OBJECT_NAME": "EXPRESS-AT1", "OBJECT_ID": "2014-010A", "EPOCH": "2025-12-19T13:31:46.041312", "MEAN_MOTION": 1.00270605, "ECCENTRICITY": 4.94e-05, "INCLINATION": 0.022, "RA_OF_ASC_NODE": 3.3546, "ARG_OF_PERICENTER": 88.7338, "MEAN_ANOMALY": 255.2488, "EPHEMERIS_TYPE": 0, "CLASSIFICATION_TYPE": "U", "NORAD_CAT_ID": 39612, "ELEMENT_SET_NO": 999, "REV_AT_EPOCH": 4301, "BSTAR": 0, "MEAN_MOTION_DOT": 0, "MEAN_MOTION_DDOT": 0}, "tle": {"line1": "1 39612U 14010A   25353.56372733  .00000000  00000+0  00000+0 0  9999", "line2": "2 39612   0.0220   3.3546 0000494  88.7338 255.2488  1.00270605 43015"}}, "geometry": {"type": "Point", "coordinates": [37.39711260589075, 0.029452448752379838]}}, {"type": "Feature", "properties": {"norad_id": 39613, "name": "EXPRESS-AT2", "group": "eutelsat", "lat": 0.024886164719103463, "lon": 121.27391511669745, "alt_km": 35790.511423094926, "timestamp": "2025-12-20T16:47:35.962530+00:00", "meta": {"OBJECT_NAME": "EXPRESS-AT2", "OBJECT_ID": "2014-010B", "EPOCH": "2025-12-20T13:45:38.596032", "MEAN_MOTION": 1.0027128, "ECCENTRICITY": 0.0001028, "INCLINATION": 0.0178, "RA_OF_ASC_NODE": 326.0157, "ARG_OF_PERICENTER": 324.6973, "MEAN_ANOMALY": 144.9593, "EPHEMERIS_TYPE": 0, "CLASSIFICATION_TYPE": "U", "NORAD_CAT_ID": 39613, "ELEMENT_SET_NO": 999, "REV_AT_EPOCH": 4270, "BSTAR": 0, "MEAN_MOTION_DOT": -2.58e-06, "MEAN_MOTION_DDOT": 0}, "tle": {"line1": "1 39613U 14010B   25354.57336338 -.00000258  00000+0  00000+0 0  9999", "line2": "2 39613   0.0178 326.0157 0001028 324.6973 144.9593  1.00271280 42708"}}, "geometry": {"type": "Point", "coordinates": [121.27391511669745, 0.024886164719103463]}}, {"type": "Feature", "properties": {"norad_id": 39773, "name": "EUTELSAT 3B", "group": "eutelsat", "lat": -0.029239422091072612, "lon": -15.440555595419495, "alt_km": 35792.28013103525, "timestamp": "2025-12-20T16:47:35.962542+00:00", "meta": {"OBJECT_NAME": "EUTELSAT 3B", "OBJECT_ID": "2014-030A", "EPOCH": "2025-12-20T06:23:47.880096", "MEAN_MOTION": 1.0027252, "ECCENTRICITY": 0.0004165, "INCLINATION": 0.0609, "RA_OF_ASC_NODE": 6.0714, "ARG_OF_PERICENTER": 226.7459, "MEAN_ANOMALY": 315.3284, "EPHEMERIS_TYPE": 0, "CLASSIFICATION_TYPE": "U", "NORAD_CAT_ID": 39773, "ELEMENT_SET_NO": 999, "REV_AT_EPOCH": 4227, "BSTAR": 0, "MEAN_MOTION_DOT": 4.4e-07, "MEAN_MOTION_DDOT": 0}, "tle": {"line1": "1 39773U 14030A   25354.26652639  .00000044  00000+0  00000+0 0  9991", "line2": "2 39773   0.0609   6.0714 0004165 226.7459 315.3284  1.00272520 42275"}}, "geometry": {"type": "Point", "coordinates": [-15.440555595419495, -0.029239422091072612]}}, {"type": "Feature", "properties": {"norad_id": 40425, "name": "EUTELSAT 115 WEST B", "group": "eutelsat", "lat": 0.010553051759604453, "lon": -133.4643266810923, "alt_km": 35780.445907055204, "timestamp": "2025-12-20T16:47:35.962554+00:00", "meta": {"OBJECT_NAME": "EUTELSAT 115 WEST B", "OBJECT_ID": "2015-010B", "EPOCH": "2025-12-20T10:15:38.712096", "MEAN_MOTION": 1.00282263, "ECCENTRICITY": 8.59e-05, "INCLINATION": 0.012, "RA_OF_ASC_NODE": 150.9289, "ARG_OF_PERICENTER": 117.9576, "MEAN_ANOMALY": 219.3981, "EPHEMERIS_TYPE": 0, "CLASSIFICATION_TYPE": "U", "NORAD_CAT_ID": 40425, "ELEMENT_SET_NO": 999, "REV_AT_EPOCH": 3960, "BSTAR": 0, "MEAN_MOTION_DOT": -3e-08, "MEAN_MOTION_DDOT": 0}, "tle": {"line1": "1 40425U 15010B   25354.42753139 -.00000003  00000+0  00000+0 0  9997", "line2": "2 40425   0.0120 150.9289 0000859 117.9576 219.3981  1.00282263 39607"}}, "geometry": {"type": "Point", "coordinates": [-133.4643266810923, 0.010553051759604453]}}, {"type": "Feature", "properties": {"norad_id": 40875, "name": "EUTELSAT 8 WEST B", "group": "eutelsat", "lat": -0.037001602701561095, "lon": -26.530651782751285, "alt_km": 35778.20570168035, "timestamp": "2025-12-20T16:47:35.962566+00:00", "meta": {"OBJECT_NAME": "EUTELSAT 8 WEST B", "OBJECT_ID": "2015-039B", "EPOCH": "2025-12-20T06:20:40.678080", "MEAN_MOTION": 1.00271049, "ECCENTRICITY": 0.0004277, "INCLINATION": 0.0633, "RA_OF_ASC_NODE": 357.6804, "ARG_OF_PERICENTER": 272.2572, "MEAN_ANOMALY": 266.3389, "EPHEMERIS_TYPE": 0, "CLASSIFICATION_TYPE": "U", "NORAD_CAT_ID": 40875, "ELEMENT_SET_NO": 999, "REV_AT_EPOCH": 3786, "BSTAR": 0, "MEAN_MOTION_DOT": -4.2e-07, "MEAN_MOTION_DDOT": 0}, "tle": {"line1": "1 40875U 15039B   25354.26435970 -.00000042  00000+0  00000+0 0  9992", "line2": "2 40875   0.0633 357.6804 0004277 272.2572 266.3389  1.00271049 37863"}}, "geometry": {"type": "Point", "coordinates": [-26.530651782751285, -0.037001602701561095]}}, {"type": "Feature", "properties": {"norad_id": 41310, "name": "EUTELSAT 9B", "group": "eutelsat", "lat": -0.062228501230975126, "lon": -9.534848671881624, "alt_km": 35781.02298817648, "timestamp": "2025-12-20T16:47:35.962578+00:00", "meta": {"OBJECT_NAME": "EUTELSAT 9B", "OBJECT_ID": "2016-005A", "EPOCH": "2025-12-20T06:25:32.711808", "MEAN_MOTION": 1.00272606, "ECCENTRICITY": 0.0004466, "INCLINATION": 0.0619, "RA_OF_ASC_NODE": 71.3783, "ARG_OF_PERICENTER": 203.8271, "MEAN_ANOMALY": 279.2785, "EPHEMERIS_TYPE": 0, "CLASSIFICATION_TYPE": "U", "NORAD_CAT_ID": 41310, "ELEMENT_SET_NO": 999, "REV_AT_EPOCH": 3632, "BSTAR": 0, "MEAN_MOTION_DOT": 8.6e-07, "MEAN_MOTION_DDOT": 0}, "tle": {"line1": "1 41310U 16005A   25354.26773972  .00000086  00000+0  00000+0 0  9995", "line2": "2 41310   0.0619  71.3783 0004466 203.8271 279.2785  1.00272606 36327"}}, "geometry": {"type": "Point", "coordinates": [-9.534848671881624, -0.062228501230975126]}}, {"type": "Feature", "properties": {"norad_id": 41382, "name": "EUTELSAT 65 WEST A", "group": "eutelsat", "lat": -0.0692534865629729, "lon": -83.78017931104398, "alt_km": 35776.476383907764, "timestamp": "2025-12-20T16:47:35.962589+00:00", "meta": {"OBJECT_NAME": "EUTELSAT 65 WEST A", "OBJECT_ID": "2016-014A", "EPOCH": "2025-12-20T12:11:56.059008", "MEAN_MOTION": 1.00274098, "ECCENTRICITY": 0.0002126, "INCLINATION": 0.0531, "RA_OF_ASC_NODE": 332.5457, "ARG_OF_PERICENTER": 299.6885, "MEAN_ANOMALY": 294.887, "EPHEMERIS_TYPE": 0, "CLASSIFICATION_TYPE": "U", "NORAD_CAT_ID": 41382, "ELEMENT_SET_NO": 999, "REV_AT_EPOCH": 3574, "BSTAR": 0, "MEAN_MOTION_DOT": -2.53e-06, "MEAN_MOTION_DDOT": 0}, "tle": {"line1": "1 41382U 16014A   25354.50828772 -.00000253  00000+0  00000+0 0  9997", "line2": "2 41382   0.0531 332.5457 0002126 299.6885 294.8870  1.00274098 35744"}}, "geometry": {"type": "Point", "coordinates": [-83.78017931104398, -0.0692534865629729]}}, {"type": "Feature", "properties": {"norad_id": 41589, "name": "EUTELSAT 117 WEST B", "group": "eutelsat", "lat": 0.009045392843299856, "lon": -135.55918055281737, "alt_km": 35783.084050403035, "timestamp": "2025-12-20T16:47:35.962601+00:00", "meta": {"OBJECT_NAME": "EUTELSAT 117 WEST B", "OBJECT_ID": "2016-038B", "EPOCH": "2025-12-20T10:15:38.712096", "MEAN_MOTION": 1.0027683, "ECCENTRICITY": 6.12e-05, "INCLINATION": 0.0138, "RA_OF_ASC_NODE": 152.9607, "ARG_OF_PERICENTER": 124.2056, "MEAN_ANOMALY": 209.0277, "EPHEMERIS_TYPE": 0, "CLASSIFICATION_TYPE": "U", "NORAD_CAT_ID": 41589, "ELEMENT_SET_NO": 999, "REV_AT_EPOCH": 3487, "BSTAR": 0, "MEAN_MOTION_DOT": 1.1e-07, "MEAN_MOTION_DDOT": 0}, "tle": {"line1": "1 41589U 16038B   25354.42753139  .00000011  00000+0  00000+0 0  9998", "line2": "2 41589   0.0138 152.9607 0000612 124.2056 209.0277  1.00276830 34876"}}, "geometry": {"type": "Point", "coordinates": [-135.55918055281737, 0.009045392843299856]}}]}